[{"OBJECT_NAME":"GONETS-M 11","OBJECT_ID":"2015-020A","EPOCH":"2026-03-09T23:54:14.856192","MEAN_MOTION":12.42872903,"ECCENTRICITY":0.00153944,"INCLINATION":82.4805,"RA_OF_ASC_NODE":92.8042,"ARG_OF_PERICENTER":214.9097,"MEAN_ANOMALY":145.0974,"EPHEMERIS_TYPE":0,"CLASSIFICATION_TYPE":"U","NORAD_CAT_ID":40552,"ELEMENT_SET_NO":999,"REV_AT_EPOCH":49641,"BSTAR":0.00064288307,"MEAN_MOTION_DOT":9.9e-7,"MEAN_MOTION_DDOT":0},{"OBJECT_NAME":"COSMOS 1823 DEB","OBJECT_ID":"1987-020DP","EPOCH":"2026-03-09T00:11:14.911008","MEAN_MOTION":12.30530596,"ECCENTRICITY":0.00791205,"INCLINATION":73.64,"RA_OF_ASC_NODE":270.8638,"ARG_OF_PERICENTER":5.1278,"MEAN_ANOMALY":147.3126,"EPHEMERIS_TYPE":0,"CLASSIFICATION_TYPE":"U","NORAD_CAT_ID":20285,"ELEMENT_SET_NO":999,"REV_AT_EPOCH":58604,"BSTAR":0.00089701249,"MEAN_MOTION_DOT":9.0e-7,"MEAN_MOTION_DDOT":0}]
